OBJECT_NAME,OBJECT_ID,EPOCH,MEAN_MOTION,ECCENTRICITY,INCLINATION,RA_OF_ASC_NODE,ARG_OF_PERICENTER,MEAN_ANOMALY,EPHEMERIS_TYPE,CLASSIFICATION_TYPE,NORAD_CAT_ID,ELEMENT_SET_NO,REV_AT_EPOCH,BSTAR,MEAN_MOTION_DOT,MEAN_MOTION_DDOT
COSMOS 2251 DEB,1993-036AGL,2024-10-05T14:41:30.081408,14.76766308,0.0045016,74.0475,354.1332,189.0002,242.3198,0,U,35023,999,81844,0.0056247,0.00040297,0
COSMOS 2251 DEB,1993-036AGN,2024-10-06T01:03:09.662976,14.68652568,0.009131,73.9407,188.4223,202.4705,157.2456,0,U,35025,999,82342,0.0018371,0.00011371,0
COSMOS 2251 DEB,1993-036AGP,2024-10-04T16:03:00.965088,14.53136179,0.0085345,74.0464,57.9706,281.6803,88.7047,0,U,35026,999,81837,0.00040998,1.749e-05,0
COSMOS 2251 DEB,1993-036AGR,2024-10-04T06:20:02.800320,14.55865333,0.0085477,74.0407,15.0967,259.38,131.0973,0,U,35028,999,82043,0.00055641,2.534e-05,0
COSMOS 2251 DEB,1993-036AGU,2024-10-05T20:06:32.941728,14.37445332,0.0018721,74.0397,336.3899,183.5877,176.5146,0,U,35031,999,59061,0.00088731,2.634e-05,0
COSMOS 2251 DEB,1993-036AGV,2024-10-06T00:04:46.283808,14.52482392,0.0073762,73.8513,117.2193,54.4311,96.0312,0,U,35032,999,81389,0.0042397,0.0001795,0
COSMOS 2251 DEB,1993-036AGW,2024-10-06T05:20:13.168032,14.46963803,0.0012476,74.0269,268.3265,122.9558,237.2802,0,U,35033,999,81281,0.0032045,0.00011651,0
COSMOS 2251 DEB,1993-036AHA,2024-10-01T20:59:39.243264,14.85867433,0.0028731,73.9932,327.1356,249.1997,110.6104,0,U,35037,999,82141,0.0060075,0.00053102,0
COSMOS 2251 DEB,1993-036AHB,2024-10-05T19:52:51.180096,14.19793853,0.0118898,74.1078,97.7651,194.1918,228.0943,0,U,35038,999,79410,0.0063295,0.00014396,0
COSMOS 2251 DEB,1993-036AHG,2024-10-06T01:43:29.478144,14.50717164,0.0146712,73.9623,161.4154,109.7742,251.9307,0,U,35043,999,80167,0.012536,0.00057064,0
COSMOS 2251 DEB,1993-036AHJ,2024-10-05T18:34:38.855712,13.98796957,0.018486,73.7145,96.4858,43.4956,318.0586,0,U,35045,999,78585,0.0030857,5.12e-05,0
COSMOS 2251 DEB,1993-036AHP,2024-10-04T19:48:10.995264,14.39899252,0.00175,74.0393,327.215,166.9065,193.2548,0,U,35060,999,80992,0.0017389,5.453e-05,0
COSMOS 2251 DEB,1993-036AHQ,2024-10-04T19:21:45.440352,14.6217496,0.0044745,74.0474,60.5124,285.1044,74.5174,0,U,35061,999,82317,0.0040525,0.00020725,0
COSMOS 2251 DEB,1993-036AHR,2024-10-05T00:17:59.498880,14.17155822,0.0140641,74.084,147.9922,255.0365,103.5173,0,U,35062,999,79339,0.0050661,0.00011242,0
COSMOS 2251 DEB,1993-036AHU,2024-10-02T07:23:59.461440,14.43266158,0.0018842,74.0202,287.7239,165.0613,195.1104,0,U,35065,999,81134,0.0020851,7.016e-05,0
COSMOS 2251 DEB,1993-036AHW,2024-09-10T04:13:48.837216,15.10077418,0.0040441,73.7383,163.4048,204.5225,155.4044,0,U,35067,999,81815,0.011379,0.0019387,0
COSMOS 2251 DEB,1993-036AJA,2024-10-05T21:30:26.097696,14.90536776,0.0089864,73.9391,335.6413,336.4033,23.3036,0,U,35071,999,83239,0.0025027,0.00026476,0
COSMOS 2251 DEB,1993-036AJC,2024-10-05T19:00:05.022720,14.73237953,0.0019857,74.0107,114.2719,340.8391,19.2032,0,U,35073,999,61044,0.0064391,0.00041949,0
COSMOS 2251 DEB,1993-036AJF,2024-10-04T00:12:33.870240,14.8955006,0.0050075,73.9625,179.5933,140.0366,220.4519,0,U,35076,999,82506,0.0063013,0.00062034,0
COSMOS 2251 DEB,1993-036AJJ,2024-09-25T16:31:30.934272,14.72624072,0.0033182,74.0242,250.6984,78.1717,282.3174,0,U,35280,999,80891,0.0099465,0.00064469,0
COSMOS 2251 DEB,1993-036AJK,2024-10-06T00:35:47.294880,15.01505046,0.0014626,73.9883,35.9383,34.5763,325.6372,0,U,35281,999,81822,0.014565,0.00194078,0
COSMOS 2251 DEB,1993-036AJL,2024-10-06T02:25:59.821248,15.19793022,0.003527,74.0967,156.2868,214.4359,145.4554,0,U,35282,999,81620,0.020356,0.00471459,0
COSMOS 2251 DEB,1993-036AJN,2024-10-05T21:56:46.891104,14.37492109,0.0016237,74.0515,340.9325,172.2643,1.3373,0,U,35284,999,81047,0.00086254,2.561e-05,0
COSMOS 2251 DEB,1993-036AJR,2024-10-05T11:55:21.220032,14.35744672,0.0018257,74.0325,351.9187,201.1926,170.3601,0,U,35287,999,80673,0.00074533,2.133e-05,0
COSMOS 2251 DEB,1993-036AJS,2024-10-05T06:37:41.002464,14.57330591,0.0043049,73.9506,129.3559,102.0713,258.5279,0,U,35288,999,81627,0.0046757,0.00021482,0
COSMOS 2251 DEB,1993-036AJU,2024-10-05T10:50:37.363776,14.63654806,0.0004982,74.0137,184.6145,52.3461,307.8158,0,U,35290,999,81579,0.0088609,0.00046391,0
COSMOS 2251 DEB,1993-036AKA,2024-10-05T17:52:52.484160,14.73374668,0.0003961,74.0435,168.3867,205.756,154.3416,0,U,35432,999,81035,0.01389,0.00091224,0
COSMOS 2251 DEB,1993-036AKB,2024-10-04T15:28:39.118944,14.33640839,0.0027651,74.0365,53.217,217.7033,153.8176,0,U,35433,999,80521,0.0019752,5.477e-05,0
COSMOS 2251 DEB,1993-036AKC,2024-10-05T06:08:13.779456,14.23272549,0.0087639,74.0394,274.7994,89.5666,271.5521,0,U,35434,999,79944,0.0034658,8.147e-05,0
COSMOS 2251 DEB,1993-036AKD,2024-10-05T13:12:27.054432,14.61655216,0.0012673,74.0187,226.139,58.5356,63.9279,0,U,35435,999,81170,0.0087473,0.0004384,0
COSMOS 2251 DEB,1993-036AKH,2024-10-05T09:34:13.749600,13.89130299,0.0250915,74.0195,155.2055,60.9133,111.2053,0,U,35439,999,77934,0.0089661,0.00014012,0
COSMOS 2251 DEB,1993-036AKJ,2024-10-03T20:36:02.947680,14.64595781,0.0074267,74.018,327.8618,219.8493,139.7209,0,U,35440,999,62388,0.0020792,0.00011484,0
COSMOS 2251 DEB,1993-036AKK,2024-10-04T01:39:58.283712,14.51783797,0.0045216,74.1423,39.8598,53.1935,307.3362,0,U,35441,999,81095,0.0095067,0.0003894,0
COSMOS 2251 DEB,1993-036AKL,2024-10-05T13:35:14.148672,14.64208246,0.0006885,74.0349,225.9631,337.0642,23.0217,0,U,35442,999,81120,0.0092866,0.00049251,0
COSMOS 2251 DEB,1993-036AKM,2024-09-29T23:30:33.467328,14.59529603,0.0145905,73.9924,115.1813,7.9044,352.4369,0,U,35443,999,80397,0.0065998,0.00036539,0
COSMOS 2251 DEB,1993-036AKP,2024-10-04T01:47:50.393184,14.49193298,0.0168901,74.0422,42.8224,240.7463,117.6722,0,U,35445,999,81008,0.010644,0.00048916,0
COSMOS 2251 DEB,1993-036AKQ,2024-10-05T15:35:25.434816,14.53840871,0.0077766,74.0469,56.6327,284.9857,74.2707,0,U,35446,999,81712,0.00068056,2.946e-05,0
COSMOS 2251 DEB,1993-036AKS,2024-10-06T04:30:33.156864,14.49069413,0.0008903,73.906,191.0484,98.7773,261.4394,0,U,35448,999,81116,0.0042917,0.0001632,0
COSMOS 2251 DEB,1993-036AKV,2024-10-05T11:00:38.369952,15.01622775,0.0074923,73.9353,293.1486,285.9496,73.3444,0,U,35451,999,60833,0.003462,0.00047996,0
COSMOS 2251 DEB,1993-036AKX,2024-10-01T05:55:38.098272,14.34537886,0.0072407,74.0075,105.763,339.5216,20.3035,0,U,35453,999,79936,0.001838,5.32e-05,0
COSMOS 2251 DEB,1993-036AKZ,2024-10-04T13:30:30.237408,14.43432028,0.011082,74.0329,26.5227,239,120.0235,0,U,35455,999,80319,0.0065379,0.00023848,0
COSMOS 2251 DEB,1993-036ALA,2024-10-02T05:59:31.028352,14.56219632,0.0080115,73.9564,239.6353,192.3686,167.5513,0,U,35456,999,59489,0.0054753,0.00025346,0
COSMOS 2251 DEB,1993-036ALD,2024-10-05T06:26:03.592896,14.36138851,0.0018989,73.8691,272.2613,303.301,56.6323,0,U,35459,999,52135,0.0017958,5.219e-05,0
COSMOS 2251 DEB,1993-036ALG,2024-10-05T20:03:23.971104,14.24269829,0.0091064,74.0395,332.3263,111.9516,249.134,0,U,35462,999,60204,0.0056314,0.00013568,0
COSMOS 2251 DEB,1993-036ALJ,2024-10-05T15:34:29.083008,15.07379556,0.0021493,73.9937,238.3137,144.6305,28.5685,0,U,35464,999,51188,0.011108,0.00173017,0
COSMOS 2251 DEB,1993-036ALK,2024-10-05T23:57:22.555008,14.42086362,0.006564,74.0011,282.8888,188.1732,171.8361,0,U,35465,999,81032,0.0021807,7.335e-05,0
COSMOS 2251 DEB,1993-036ALP,2024-10-05T05:32:44.896416,14.49065797,0.0077463,74.0145,118.3108,17.7694,342.6146,0,U,35469,999,81830,0.00056617,2.205e-05,0
COSMOS 2251 DEB,1993-036ALU,2024-10-04T16:01:33.255264,15.3132496,0.0019718,73.9606,17.868,12.9739,55.2686,0,U,35474,999,81946,0.014925,0.00484047,0
COSMOS 2251 DEB,1993-036ALV,2024-10-03T06:44:25.066752,14.56515023,0.0024068,74.0264,282.5679,98.653,261.7362,0,U,35475,999,81272,0.0054529,0.00024418,0
COSMOS 2251 DEB,1993-036ALW,2024-10-06T04:12:33.853248,14.61119232,0.002382,73.9841,181.505,272.0846,238.7053,0,U,35476,999,81548,0.0065787,0.00032614,0
COSMOS 2251 DEB,1993-036ALX,2024-10-06T03:58:21.127584,13.80698706,0.0290789,73.9068,192.7895,280.2979,76.5481,0,U,35580,999,77510,0.0054334,7.84e-05,0
COSMOS 2251 DEB,1993-036AMA,2024-10-05T11:00:52.588800,13.5394237,0.0389885,73.9209,193.4992,298.1919,58.0325,0,U,35583,999,76544,0.0052646,5.762e-05,0
COSMOS 2251 DEB,1993-036AMB,2024-10-05T03:20:31.420320,14.76823167,0.0059748,74.0618,328.2269,38.4599,322.081,0,U,35584,999,79380,0.03209,0.00239869,0
COSMOS 2251 DEB,1993-036AMC,2024-10-05T10:50:03.717888,13.72175819,0.0319148,73.9761,350.3817,351.2412,19.3674,0,U,35585,999,58112,0.0042757,5.582e-05,0
COSMOS 2251 DEB,1993-036AMD,2024-09-26T18:19:02.080128,13.51110854,0.0409117,74.0186,290.0173,257.2706,224.6957,0,U,35586,999,54410,0.0013558,1.458e-05,0
COSMOS 2251 DEB,1993-036AME,2024-10-05T23:45:25.303680,14.6903516,0.0104592,74.0063,179.8431,115.4007,245.8035,0,U,35587,999,82948,0.0012654,8.049e-05,0
COSMOS 2251 DEB,1993-036AMK,2024-10-05T23:55:46.537824,15.30895169,0.0049092,74.005,178.0711,39.5713,320.9056,0,U,35592,999,83651,0.0042275,0.00133219,0
COSMOS 2251 DEB,1993-036AML,2024-10-04T13:57:24.585984,14.2238205,0.0104684,74.0889,348.2178,104.7525,256.525,0,U,35593,999,79079,0.0026903,6.314e-05,0
COSMOS 2251 DEB,1993-036AMM,2024-10-06T04:52:21.890496,14.72562637,0.0039947,73.8128,251.5917,81.9841,278.586,0,U,35594,999,82034,0.0057492,0.00037194,0
COSMOS 2251 DEB,1993-036AMV,2024-10-05T13:53:05.966592,15.1706997,0.0124769,74.0035,21.2685,204.2538,166.8137,0,U,35602,999,83555,0.001765,0.00042988,0
COSMOS 2251 DEB,1993-036AMY,2024-10-03T21:58:44.783040,14.71644014,0.0076259,73.8943,144.0141,169.9361,190.336,0,U,35605,999,81274,0.0097593,0.00064146,0
COSMOS 2251 DEB,1993-036AMZ,2024-10-04T10:21:38.515392,13.40068431,0.0460016,73.8132,342.344,255.7297,99.2316,0,U,35606,999,75375,0.0063946,6.459e-05,0
COSMOS 2251 DEB,1993-036ANE,2024-10-04T10:55:49.465632,14.57374904,0.0026294,74.0251,296.6505,114.6936,245.697,0,U,35611,999,80990,0.0065098,0.00029751,0
